{
 "type": "FeatureCollection",
 "name": "AMENITIES",
 "features": [
  {
   "type": "Feature",
   "properties": {
    "fid": 1,
    "NAME": "Cafeteria",
    "type": "Cafeteria"
   },
   "geometry": {
    "type": "MultiPolygon",
    "coordinates": [
     [
      [
       [
        34.6096879,
        -0.0016886
       ],
       [
        34.6097576,
        -0.0016409
       ],
       [
        34.6097007,
        -0.0015499
       ],
       [
        34.6099193,
        -0.0014026
       ],
       [
        34.6100397,
        -0.0015833
       ],
       [
        34.609749,
        -0.0017757
       ],
       [
        34.6096879,
        -0.0016886
       ]
      ]
     ]
    ]
   }
  },
  {
   "type": "Feature",
   "properties": {
    "fid": 2,
    "NAME": "Cafeteria",
    "type": "Cafeteria"
   },
   "geometry": {
    "type": "MultiPolygon",
    "coordinates": [
     [
      [
       [
        34.5963337,
        -0.0058264
       ],
       [
        34.5965704,
        -0.0058145
       ],
       [
        34.5965704,
        -0.0060767
       ],
       [
        34.5963481,
        -0.0060661
       ],
       [
        34.5963455,
        -0.0060131
       ],
       [
        34.5962679,
        -0.0060131
       ],
       [
        34.5962653,
        -0.0058701
       ],
       [
        34.5963416,
        -0.0058701
       ],
       [
        34.5963376,
        -0.005845
       ],
       [
        34.5963337,
        -0.0058264
       ]
      ]
     ]
    ]
   }
  },
  {
   "type": "Feature",
   "properties": {
    "fid": 3,
    "NAME": "Washrooms",
    "type": "Washrooms"
   },
   "geometry": {
    "type": "MultiPolygon",
    "coordinates": [
     [
      [
       [
        34.6103573,
        -0.0024943
       ],
       [
        34.610446,
        -0.0024075
       ],
       [
        34.6105032,
        -0.0024664
       ],
       [
        34.6104526,
        -0.0025154
       ],
       [
        34.6104914,
        -0.0025538
       ],
       [
        34.6104513,
        -0.0025929
       ],
       [
        34.6103573,
        -0.0024943
       ]
      ]
     ]
    ]
   }
  }
 ]
}