{
 "type": "FeatureCollection",
 "name": "LECTURE HALLS",
 "crs": {
  "type": "name",
  "properties": {
   "name": "urn:ogc:def:crs:OGC:1.3:CRS84"
  }
 },
 "features": [
  {
   "type": "Feature",
   "properties": {
    "fid": 15.0,
    "Name": "COLLEGE HALL",
    "LECTURE CAPACITY": 252,
    "EXAMINATION CAPACITY": 126,
    "CURRENT NUMBER OF SEATS": 220,
    "building_id": 12
   },
   "geometry": {
    "type": "MultiPolygon",
    "coordinates": [
     [
      [
       [
        34.5963308,
        -0.0061959
       ],
       [
        34.5965615,
        -0.0061959
       ],
       [
        34.5965615,
        -0.0062925
       ],
       [
        34.5963308,
        -0.0062925
       ],
       [
        34.5963308,
        -0.0061959
       ]
      ]
     ]
    ]
   }
  },
  {
   "type": "Feature",
   "properties": {
    "fid": 1.0,
    "Name": "NEW LIBRARY",
    "LECTURE CAPACITY": null,
    "EXAMINATION CAPACITY": null,
    "CURRENT NUMBER OF SEATS": null,
    "building_id": 0
   },
   "geometry": {
    "type": "MultiPolygon",
    "coordinates": [
     [
      [
       [
        34.6038412,
        -0.0049714
       ],
       [
        34.6040219,
        -0.005045
       ],
       [
        34.6039932,
        -0.0051154
       ],
       [
        34.604528,
        -0.0053332
       ],
       [
        34.6043098,
        -0.005869
       ],
       [
        34.6038226,
        -0.0056705
       ],
       [
        34.6037872,
        -0.0057573
       ],
       [
        34.603559,
        -0.0056643
       ],
       [
        34.6036321,
        -0.0054848
       ],
       [
        34.6037642,
        -0.0051604
       ],
       [
        34.6038412,
        -0.0049714
       ]
      ]
     ]
    ]
   }
  },
  {
   "type": "Feature",
   "properties": {
    "fid": 2.0,
    "Name": "MLH 15",
    "LECTURE CAPACITY": 440,
    "EXAMINATION CAPACITY": 220,
    "CURRENT NUMBER OF SEATS": 220,
    "building_id": 1
   },
   "geometry": {
    "type": "MultiPolygon",
    "coordinates": [
     [
      [
       [
        34.6042889,
        -0.0041936
       ],
       [
        34.6046604,
        -0.0043304
       ],
       [
        34.6046086,
        -0.0044711
       ],
       [
        34.6042371,
        -0.0043343
       ],
       [
        34.6042556,
        -0.0042841
       ],
       [
        34.6042209,
        -0.0042713
       ],
       [
        34.6042356,
        -0.0042312
       ],
       [
        34.6042704,
        -0.004244
       ],
       [
        34.6042889,
        -0.0041936
       ]
      ]
     ]
    ]
   }
  },
  {
   "type": "Feature",
   "properties": {
    "fid": 3.0,
    "Name": "MLH 2",
    "LECTURE CAPACITY": 90,
    "EXAMINATION CAPACITY": 45,
    "CURRENT NUMBER OF SEATS": 45,
    "building_id": 2
   },
   "geometry": {
    "type": "MultiPolygon",
    "coordinates": [
     [
      [
       [
        34.6046256,
        -0.0047287
       ],
       [
        34.6047074,
        -0.0047569
       ],
       [
        34.604677,
        -0.0048451
       ],
       [
        34.6045952,
        -0.004817
       ],
       [
        34.6046256,
        -0.0047287
       ]
      ]
     ]
    ]
   }
  },
  {
   "type": "Feature",
   "properties": {
    "fid": 5.0,
    "Name": "MLH 3",
    "LECTURE CAPACITY": 112,
    "EXAMINATION CAPACITY": 45,
    "CURRENT NUMBER OF SEATS": 45,
    "building_id": 3
   },
   "geometry": {
    "type": "MultiPolygon",
    "coordinates": [
     [
      [
       [
        34.604418,
        -0.0046193
       ],
       [
        34.6045349,
        -0.004669
       ],
       [
        34.6044882,
        -0.0047786
       ],
       [
        34.6043713,
        -0.0047289
       ],
       [
        34.604418,
        -0.0046193
       ]
      ]
     ]
    ]
   }
  },
  {
   "type": "Feature",
   "properties": {
    "fid": 6.0,
    "Name": "MLH 4",
    "LECTURE CAPACITY": 96,
    "EXAMINATION CAPACITY": 48,
    "CURRENT NUMBER OF SEATS": 48,
    "building_id": 4
   },
   "geometry": {
    "type": "MultiPolygon",
    "coordinates": [
     [
      [
       [
        34.6042695,
        -0.0045606
       ],
       [
        34.6043659,
        -0.0046064
       ],
       [
        34.6043165,
        -0.0047104
       ],
       [
        34.60422,
        -0.0046645
       ],
       [
        34.6042695,
        -0.0045606
       ]
      ]
     ]
    ]
   }
  },
  {
   "type": "Feature",
   "properties": {
    "fid": 7.0,
    "Name": "MLH 5",
    "LECTURE CAPACITY": 112,
    "EXAMINATION CAPACITY": 56,
    "CURRENT NUMBER OF SEATS": 56,
    "building_id": 5
   },
   "geometry": {
    "type": "MultiPolygon",
    "coordinates": [
     [
      [
       [
        34.6039589,
        -0.0045573
       ],
       [
        34.6040082,
        -0.0044522
       ],
       [
        34.6041112,
        -0.0045005
       ],
       [
        34.6040619,
        -0.0046056
       ],
       [
        34.6039589,
        -0.0045573
       ]
      ]
     ]
    ]
   }
  },
  {
   "type": "Feature",
   "properties": {
    "fid": 8.0,
    "Name": "MLH 6-13",
    "LECTURE CAPACITY": 80,
    "EXAMINATION CAPACITY": 40,
    "CURRENT NUMBER OF SEATS": 50,
    "building_id": 6
   },
   "geometry": {
    "type": "MultiPolygon",
    "coordinates": [
     [
      [
       [
        34.6039766,
        -0.0044233
       ],
       [
        34.6040308,
        -0.0043329
       ],
       [
        34.6046622,
        -0.0045879
       ],
       [
        34.6046215,
        -0.0046873
       ],
       [
        34.6039766,
        -0.0044233
       ]
      ]
     ]
    ]
   }
  },
  {
   "type": "Feature",
   "properties": {
    "fid": 9.0,
    "Name": "HINDOCHA HALL",
    "LECTURE CAPACITY": 390,
    "EXAMINATION CAPACITY": 195,
    "CURRENT NUMBER OF SEATS": 195,
    "building_id": 7
   },
   "geometry": {
    "type": "MultiPolygon",
    "coordinates": [
     [
      [
       [
        34.6094705,
        -0.002301
       ],
       [
        34.6096482,
        -0.0022555
       ],
       [
        34.609641,
        -0.0022274
       ],
       [
        34.6097311,
        -0.0022043
       ],
       [
        34.6097401,
        -0.002239
       ],
       [
        34.6097836,
        -0.0022279
       ],
       [
        34.6098212,
        -0.0023747
       ],
       [
        34.6097795,
        -0.0023854
       ],
       [
        34.6097874,
        -0.0024164
       ],
       [
        34.6097088,
        -0.0024366
       ],
       [
        34.609701,
        -0.0024061
       ],
       [
        34.6095099,
        -0.0024551
       ],
       [
        34.6094705,
        -0.002301
       ]
      ]
     ]
    ]
   }
  },
  {
   "type": "Feature",
   "properties": {
    "fid": 10.0,
    "Name": "MICROBIOLOGOGY AND PALOTHOLOGY",
    "LECTURE CAPACITY": 200,
    "EXAMINATION CAPACITY": 100,
    "CURRENT NUMBER OF SEATS": 100,
    "building_id": 8
   },
   "geometry": {
    "type": "MultiPolygon",
    "coordinates": [
     [
      [
       [
        34.6101819,
        -0.0009271
       ],
       [
        34.6102189,
        -0.0009363
       ],
       [
        34.6102401,
        -0.0008506
       ],
       [
        34.6104504,
        -0.0009025
       ],
       [
        34.6104228,
        -0.0010142
       ],
       [
        34.6103776,
        -0.001003
       ],
       [
        34.6103588,
        -0.0010792
       ],
       [
        34.6103948,
        -0.0010881
       ],
       [
        34.6103703,
        -0.0011875
       ],
       [
        34.6101624,
        -0.0011362
       ],
       [
        34.6101836,
        -0.0010502
       ],
       [
        34.6101533,
        -0.0010428
       ],
       [
        34.6101819,
        -0.0009271
       ]
      ]
     ]
    ]
   }
  },
  {
   "type": "Feature",
   "properties": {
    "fid": 11.0,
    "Name": "MUSIC STUDIO",
    "LECTURE CAPACITY": null,
    "EXAMINATION CAPACITY": null,
    "CURRENT NUMBER OF SEATS": null,
    "building_id": 9
   },
   "geometry": {
    "type": "MultiPolygon",
    "coordinates": [
     [
      [
       [
        34.6100443,
        -0.0021134
       ],
       [
        34.6101078,
        -0.0021194
       ],
       [
        34.6100899,
        -0.0023107
       ],
       [
        34.6100264,
        -0.0023047
       ],
       [
        34.6100443,
        -0.0021134
       ]
      ]
     ]
    ]
   }
  },
  {
   "type": "Feature",
   "properties": {
    "fid": 12.0,
    "Name": "School of computing",
    "LECTURE CAPACITY": 200,
    "EXAMINATION CAPACITY": 100,
    "CURRENT NUMBER OF SEATS": 150,
    "building_id": 10
   },
   "geometry": {
    "type": "MultiPolygon",
    "coordinates": [
     [
      [
       [
        34.6122575,
        -0.001719
       ],
       [
        34.6122949,
        -0.0017181
       ],
       [
        34.6122942,
        -0.0016876
       ],
       [
        34.6123677,
        -0.0016857
       ],
       [
        34.6123685,
        -0.0017173
       ],
       [
        34.612389,
        -0.0017167
       ],
       [
        34.6123927,
        -0.0018638
       ],
       [
        34.6124276,
        -0.001863
       ],
       [
        34.6124241,
        -0.0017255
       ],
       [
        34.6125256,
        -0.001723
       ],
       [
        34.6125351,
        -0.0020997
       ],
       [
        34.6124458,
        -0.002102
       ],
       [
        34.6124425,
        -0.0019697
       ],
       [
        34.612418,
        -0.0019704
       ],
       [
        34.6124224,
        -0.0021411
       ],
       [
        34.6123083,
        -0.0021441
       ],
       [
        34.6123071,
        -0.0020975
       ],
       [
        34.6122672,
        -0.0020986
       ],
       [
        34.6122575,
        -0.001719
       ]
      ]
     ]
    ]
   }
  },
  {
   "type": "Feature",
   "properties": {
    "fid": 13.0,
    "Name": "PROFESSOR GEORGE MAGOHA ",
    "LECTURE CAPACITY": null,
    "EXAMINATION CAPACITY": null,
    "CURRENT NUMBER OF SEATS": null,
    "building_id": 11
   },
   "geometry": {
    "type": "MultiPolygon",
    "coordinates": [
     [
      [
       [
        34.603170371517855,
        -0.00634366192614
       ],
       [
        34.60317037169292,
        -0.00640028417251
       ],
       [
        34.60315430230064,
        -0.006429943495231
       ],
       [
        34.603069937720015,
        -0.006498699350265
       ],
       [
        34.60294405990745,
        -0.006443425648718
       ],
       [
        34.602934685714374,
        -0.006338270065828
       ],
       [
        34.60295075508498,
        -0.006300521847423
       ],
       [
        34.60299896344048,
        -0.006266817977152
       ],
       [
        34.60300666339375,
        -0.006263953137157
       ],
       [
        34.60298255912802,
        -0.006251819871772
       ],
       [
        34.60299996765416,
        -0.006224182767116
       ],
       [
        34.60303009797256,
        -0.006234967865428
       ],
       [
        34.60304884561216,
        -0.006203960385463
       ],
       [
        34.602980550224764,
        -0.006179693914528
       ],
       [
        34.6029905935648,
        -0.006150034609479
       ],
       [
        34.60279441169246,
        -0.00607521293475
       ],
       [
        34.602777672484685,
        -0.006021287025411
       ],
       [
        34.602821863257184,
        -0.005911412754823
       ],
       [
        34.60287341950697,
        -0.005903997785914
       ],
       [
        34.60302407112329,
        -0.005967360343112
       ],
       [
        34.603090357364735,
        -0.005832545270984
       ],
       [
        34.603147270202264,
        -0.005860182156884
       ],
       [
        34.603160661332495,
        -0.005822433953865
       ],
       [
        34.60322828715732,
        -0.005850070808264
       ],
       [
        34.603232974055764,
        -0.005837937456645
       ],
       [
        34.603297921623486,
        -0.005862878019985
       ],
       [
        34.6032912260399,
        -0.005875011377079
       ],
       [
        34.603347469300935,
        -0.005899277889469
       ],
       [
        34.60334077378749,
        -0.00593567792137
       ],
       [
        34.60339567792822,
        -0.005961292583985
       ],
       [
        34.60337960856673,
        -0.006003085237217
       ],
       [
        34.6033367565688,
        -0.005988255728997
       ],
       [
        34.603330061025375,
        -0.006013870572445
       ],
       [
        34.603372913047316,
        -0.006036788971707
       ],
       [
        34.60334613079414,
        -0.006110937224589
       ],
       [
        34.60353093005301,
        -0.006181714464548
       ],
       [
        34.60354633009057,
        -0.006220810723462
       ],
       [
        34.60349879154791,
        -0.006332707194871
       ],
       [
        34.60344723535702,
        -0.006353603657824
       ],
       [
        34.60327314909227,
        -0.006288893066391
       ],
       [
        34.60327247948935,
        -0.006275411581907
       ],
       [
        34.60323766222305,
        -0.006258559830881
       ],
       [
        34.60319146268045,
        -0.006332034077726
       ],
       [
        34.60317941058838,
        -0.006338943377431
       ],
       [
        34.60317941058838,
        -0.006338943377431
       ],
       [
        34.603170371517855,
        -0.00634366192614
       ]
      ]
     ]
    ]
   }
  },
  {
   "type": "Feature",
   "properties": {
    "fid": 16.0,
    "Name": "HARAMBEE HALL",
    "LECTURE CAPACITY": 140,
    "EXAMINATION CAPACITY": 70,
    "CURRENT NUMBER OF SEATS": 70,
    "building_id": 9
   },
   "geometry": {
    "type": "MultiPolygon",
    "coordinates": [
     [
      [
       [
        34.6095471,
        -0.0018614
       ],
       [
        34.6096504,
        -0.0018197
       ],
       [
        34.6097023,
        -0.0019494
       ],
       [
        34.609607,
        -0.0019978
       ],
       [
        34.6095471,
        -0.0018614
       ]
      ]
     ]
    ]
   }
  }
 ]
}