{
 "type": "FeatureCollection",
 "name": "SPORTS AND GROUNDS",
 "features": [
  {
   "type": "Feature",
   "properties": {
    "fid": 1,
    "NAME": "GSQ Ground",
    "type": "Sports ground"
   },
   "geometry": {
    "type": "MultiPolygon",
    "coordinates": [
     [
      [
       [
        34.6080834,
        -0.0031172
       ],
       [
        34.6099877,
        -0.0025876
       ],
       [
        34.6100508,
        -0.0025929
       ],
       [
        34.6100877,
        -0.0026194
       ],
       [
        34.6101771,
        -0.0026723
       ],
       [
        34.6102613,
        -0.0027253
       ],
       [
        34.6102823,
        -0.002773
       ],
       [
        34.6103033,
        -0.0029106
       ],
       [
        34.6103033,
        -0.0031013
       ],
       [
        34.6081886,
        -0.0036627
       ],
       [
        34.6080834,
        -0.0031172
       ]
      ]
     ]
    ]
   }
  },
  {
   "type": "Feature",
   "properties": {
    "fid": 2,
    "NAME": "Mosque Field",
    "type": "Sports ground"
   },
   "geometry": {
    "type": "MultiPolygon",
    "coordinates": [
     [
      [
       [
        34.6109438,
        -0.0025479
       ],
       [
        34.6114515,
        -0.0018726
       ],
       [
        34.6115698,
        -0.0017853
       ],
       [
        34.6117618,
        -0.0017005
       ],
       [
        34.6119039,
        -0.0017005
       ],
       [
        34.6119775,
        -0.0017217
       ],
       [
        34.6120538,
        -0.0018223
       ],
       [
        34.6121301,
        -0.0020368
       ],
       [
        34.6121616,
        -0.0021719
       ],
       [
        34.6121116,
        -0.002344
       ],
       [
        34.6116224,
        -0.0029821
       ],
       [
        34.6115014,
        -0.0030907
       ],
       [
        34.6113147,
        -0.0031172
       ],
       [
        34.6111306,
        -0.0030722
       ],
       [
        34.6109701,
        -0.0029212
       ],
       [
        34.6108807,
        -0.0027279
       ],
       [
        34.6109044,
        -0.0025744
       ],
       [
        34.6109438,
        -0.0025479
       ]
      ]
     ]
    ]
   }
  },
  {
   "type": "Feature",
   "properties": {
    "fid": 3,
    "NAME": "Hockey Pitch",
    "type": "Sports ground"
   },
   "geometry": {
    "type": "MultiPolygon",
    "coordinates": [
     [
      [
       [
        34.6104266,
        -0.0022357
       ],
       [
        34.6107738,
        -0.0018121
       ],
       [
        34.6109895,
        -0.0017591
       ],
       [
        34.6111421,
        -0.0017909
       ],
       [
        34.6112788,
        -0.0018068
       ],
       [
        34.6113314,
        -0.0019127
       ],
       [
        34.6108527,
        -0.0025747
       ],
       [
        34.6107423,
        -0.0026329
       ],
       [
        34.610616,
        -0.0025747
       ],
       [
        34.6105003,
        -0.0024105
       ],
       [
        34.6104266,
        -0.0022357
       ]
      ]
     ]
    ]
   }
  }
 ]
}